GLOBALSTAR M045         
1 25676U 99019A   25231.16360442 -.00000081  00000+0  11128-3 0  9998
2 25676  51.9963 125.7733 0000855  31.0117  90.2577 12.27064989201360
GLOBALSTAR M019         
1 25677U 99019B   25231.17174124 -.00000112  00000+0 -23349-3 0  9994
2 25677  51.9852 260.5497 0001313  99.5384 304.1192 12.13874749192983
GLOBALSTAR M044         
1 25678U 99019C   25231.16909391 -.00000060  00000+0  32755-3 0  9998
2 25678  51.9939 219.7955 0005975 162.7156 279.4760 11.90254473178803
GLOBALSTAR M042         
1 25679U 99019D   25231.20923390 -.00000080  00000+0  11548-3 0  9998
2 25679  51.9986 233.0421 0003014  69.0420  12.8472 12.22085640193033
GLOBALSTAR M025         
1 25770U 99031A   25230.71393505 -.00000090  00000+0 -68263-3 0  9996
2 25770  51.9849  14.4227 0001323 237.7619 135.0229 11.22563757488734
GLOBALSTAR M049         
1 25771U 99031B   25230.81667818 -.00000147  00000+0 -28233-2 0  9994
2 25771  51.9885  52.0960 0003637 106.4275 253.6921 11.12115528124390
GLOBALSTAR M047         
1 25772U 99031C   25230.84773186 -.00000067  00000+0  70136-4 0  9995
2 25772  51.9847  43.0076 0016689  13.2429 346.8812 11.31929332478207
GLOBALSTAR M052         
1 25773U 99031D   25230.19387747 -.00000024  00000+0  14154-2 0  9997
2 25773  51.9853 161.3097 0002595 288.7398 220.3494 11.15060421485428
